NORAD_CAT_ID,OBJECT_NAME,OBJECT_TYPE,EPOCH,MEAN_MOTION,ECCENTRICITY,INCLINATION,RA_OF_ASC_NODE,ARG_OF_PERICENTER,MEAN_ANOMALY,BSTAR,MEAN_MOTION_DOT,MEAN_MOTION_DDOT,TLE_LINE0,TLE_LINE1,TLE_LINE2,SEMIMAJOR_AXIS,PERIOD,APOGEE,PERIGEE,DECAYED
52353.0,STARLINK-3807,PAYLOAD,2022-09-13 16:00:00,15.08815824,0.0002041999999999,53.2177,153.9468,59.8769,168.61900000000003,0.0030875,0.0004916,0.0,0 STARLINK-3807,1 52353U 22045Y   22256.66667824  .00049160  00000-0  30875-2 0  9998,2 52353  53.2177 153.9468 0002042  59.8769 168.6190 15.08815824 23595,6917.954000000002,95.439,541.232,538.4069999999998,0.0
52353.0,STARLINK-3807,PAYLOAD,2022-09-13 22:00:00,15.08847904,0.0002133,53.2178,152.8272,56.0083,91.1606,-0.0011296,-0.00018225,0.0,0 STARLINK-3807,1 52353U 22045Y   22256.91667824 -.00018225  00000-0 -11296-2 0  9992,2 52353  53.2178 152.8272 0002133  56.0083  91.1606 15.08847904  1307,6917.856,95.437,541.197,538.246,0.0
52353.0,STARLINK-3807,PAYLOAD,2022-09-14 06:00:00,15.08838085,0.0002156,53.2172,151.3312,51.7363,107.0241,-0.00089792,-0.0001455,0.0,0 STARLINK-3807,1 52353U 22045Y   22257.25001157 -.00014550  00000-0 -89792-3 0  9995,2 52353  53.2172 151.3312 0002156  51.7363 107.0241 15.08838085 23685,6917.886,95.438,541.243,538.26,0.0
52353.0,STARLINK-3807,PAYLOAD,2022-09-14 14:00:01,15.08806994,0.0001984,53.2171,149.8332,57.2128,113.1407,0.0032771999999999,0.00052208,0.0,0 STARLINK-3807,1 52353U 22045Y   22257.58334491  .00052208  00000-0  32772-2 0  9996,2 52353  53.2171 149.8332 0001984  57.2128 113.1407 15.08806994  1307,6917.981,95.44,541.219,538.474,0.0
52353.0,STARLINK-3807,PAYLOAD,2022-09-14 22:00:00,15.08848543,0.0002097,53.2171,148.3383,55.4215,126.5099,-0.00065142,-0.00010643,0.0,0 STARLINK-3807,1 52353U 22045Y   22257.91667824 -.00010643  00000-0 -65142-3 0  9999,2 52353  53.2171 148.3383 0002097  55.4215 126.5099 15.08848543 23787,6917.854,95.437,541.17,538.269,0.0
52353.0,STARLINK-3807,PAYLOAD,2022-09-15 14:00:01,15.08816594,0.0001934,53.2168,145.344,56.0724,149.0697,0.0033299999999999,0.00053075,0.0,0 STARLINK-3807,1 52353U 22045Y   22258.58334491  .00053075  00000-0  33300-2 0  9998,2 52353  53.2168 145.3440 0001934  56.0724 149.0697 15.08816594  1304,6917.9519999999975,95.439,541.155,538.479,0.0
52353.0,STARLINK-3807,PAYLOAD,2022-09-15 21:02:37,15.08838414,0.0002044999999999,53.2184,144.0259,58.1407,301.9784,3.4995e-05,2.69e-06,0.0,0 STARLINK-3807,1 52353U 22045Y   22258.87682140  .00000269  00000-0  34995-4 0  9997,2 52353  53.2184 144.0259 0002045  58.1407 301.9784 15.08838414 23935,6917.885,95.438,541.165,538.336,0.0
52353.0,STARLINK-3807,PAYLOAD,2022-09-15 22:38:00,15.08838434,0.000206,53.2184,143.7286,58.7039,301.4154,3.3529000000000004e-05,2.45e-06,0.0,0 STARLINK-3807,1 52353U 22045Y   22258.94306111  .00000245  00000-0  33529-4 0  9992,2 52353  53.2184 143.7286 0002060  58.7039 301.4154 15.08838434 23944,6917.885,95.438,541.175,538.325,0.0
52353.0,STARLINK-3807,PAYLOAD,2022-09-16 20:53:24,15.0884104,0.0002141,53.22,139.5669,57.0667,303.0531,-1.0309e-05,-4.52e-06,0.0,0 STARLINK-3807,1 52353U 22045Y   22259.87042185 -.00000452  00000-0 -10309-4 0  9996,2 52353  53.2200 139.5669 0002141  57.0667 303.0531 15.08841040 24080,6917.877,95.437,541.2230000000002,538.261,0.0
52353.0,STARLINK-3807,PAYLOAD,2022-09-16 22:28:48,15.08829557,0.0001968,53.218,139.2706,50.301,309.8156,-0.00010093,-1.894e-05,0.0,0 STARLINK-3807,1 52353U 22045Y   22259.93667079 -.00001894  00000-0 -10093-3 0  9998,2 52353  53.2180 139.2706 0001968  50.3010 309.8156 15.08829557 24097,6917.9119999999975,95.438,541.139,538.4159999999998,0.0
52353.0,STARLINK-3807,PAYLOAD,2022-09-17 09:36:29,15.08837645,0.0001929,53.2197,137.1878,53.6185,306.4984,-8.5231e-05,-1.644e-05,0.0,0 STARLINK-3807,1 52353U 22045Y   22260.40034632 -.00001644  00000-0 -85231-4 0  9995,2 52353  53.2197 137.1878 0001929  53.6185 306.4984 15.08837645 24165,6917.888000000001,95.438,541.087,538.418,0.0
52353.0,STARLINK-3807,PAYLOAD,2022-09-17 20:44:11,15.08838436,0.0002043,53.2191,135.1065,54.5334,305.5848,-1.0819e-05,-4.6e-06,0.0,0 STARLINK-3807,1 52353U 22045Y   22260.86402391 -.00000460  00000-0 -10819-4 0  9991,2 52353  53.2191 135.1065 0002043  54.5334 305.5848 15.08838436 24235,6917.885,95.438,541.163,538.337,0.0
52353.0,STARLINK-3807,PAYLOAD,2022-09-18 01:30:20,15.08844095,0.0001934,53.2193,134.2141,51.2467,308.8698,-4.4738e-06,-3.59e-06,0.0,0 STARLINK-3807,1 52353U 22045Y   22261.06274015 -.00000359  00000-0 -44738-5 0  9999,2 52353  53.2193 134.2141 0001934  51.2467 308.8698 15.08844095 24261,6917.868,95.437,541.071,538.395,0.0
52353.0,STARLINK-3807,PAYLOAD,2022-09-18 18:59:35,15.08832069,0.0001943,53.2194,130.9428,53.7172,306.3999,6.3027e-05,7.15e-06,0.0,0 STARLINK-3807,1 52353U 22045Y   22261.79138477  .00000715  00000-0  63027-4 0  9995,2 52353  53.2194 130.9428 0001943  53.7172 306.3999 15.08832069 24370,6917.905,95.438,541.114,538.425,0.0
52353.0,STARLINK-3807,PAYLOAD,2022-09-18 20:34:58,15.08832073,0.0001940999999999,53.2196,130.6454,54.0242,306.093,6.0871e-05,6.81e-06,0.0,0 STARLINK-3807,1 52353U 22045Y   22261.85762513  .00000681  00000-0  60871-4 0  9992,2 52353  53.2196 130.6454 0001941  54.0242 306.0930 15.08832073 24386,6917.905,95.438,541.112,538.427,0.0
52353.0,STARLINK-3807,PAYLOAD,2022-09-19 07:42:40,15.08841072,0.0001964,53.2196,128.5639,53.9862,306.1312,0.00011827,1.595e-05,0.0,0 STARLINK-3807,1 52353U 22045Y   22262.32129820  .00001595  00000-0  11827-3 0  9994,2 52353  53.2196 128.5639 0001964  53.9862 306.1312 15.08841072 24450,6917.877,95.437,541.101,538.383,0.0
52353.0,STARLINK-3807,PAYLOAD,2022-09-19 15:39:36,15.08839748,0.0001962,53.2202,127.0778,58.5728,301.5456,7.9978e-06,-1.61e-06,0.0,0 STARLINK-3807,1 52353U 22045Y   22262.65250307 -.00000161  00000-0  79978-5 0  9997,2 52353  53.2202 127.0778 0001962  58.5728 301.5456 15.08839748 24507,6917.880999999999,95.438,541.1030000000002,538.389,0.0
52353.0,STARLINK-3807,PAYLOAD,2022-09-20 01:11:55,15.08839882,0.0001961,53.2194,125.2936,54.392,305.7254,-2.2772e-05,-6.51e-06,0.0,0 STARLINK-3807,1 52353U 22045Y   22263.04994424 -.00000651  00000-0 -22772-4 0  9990,2 52353  53.2194 125.2936 0001961  54.3920 305.7254 15.08839882 24567,6917.880999999999,95.438,541.102,538.389,0.0
52353.0,STARLINK-3807,PAYLOAD,2022-09-20 07:33:27,15.08838718,0.0001928,53.2194,124.1047,55.5814,304.5361,-1.7106e-05,-5.6e-06,0.0,0 STARLINK-3807,1 52353U 22045Y   22263.31490462 -.00000560  00000-0 -17106-4 0  9997,2 52353  53.2194 124.1047 0001928  55.5814 304.5361 15.08838718 24604,6917.884,95.438,541.0830000000002,538.4159999999998,0.0
52353.0,STARLINK-3807,PAYLOAD,2022-09-20 23:27:19,15.08834837,0.0002056999999999,53.2191,121.1314,50.6697,309.4477,-4.2712e-05,-9.68e-06,0.0,0 STARLINK-3807,1 52353U 22045Y   22263.97730992 -.00000968  00000-0 -42712-4 0  9997,2 52353  53.2191 121.1314 0002057  50.6697 309.4477 15.08834837 24705,6917.896,95.438,541.184,538.3380000000002,0.0
52353.0,STARLINK-3807,PAYLOAD,2022-09-21 18:31:57,15.08832803,0.0001465,53.219,117.56,55.6338,304.4792,-2.275e-05,-6.5e-06,0.0,0 STARLINK-3807,1 52353U 22045Y   22264.77218905 -.00000650  00000-0 -22750-4 0  9999,2 52353  53.2190 117.5600 0001465  55.6338 304.4792 15.08832803 24829,6917.901999999999,95.438,540.781,538.754,0.0
52353.0,STARLINK-3807,PAYLOAD,2022-09-22 19:58:06,15.08862587,9.6e-05,53.2182,112.7991,53.5265,306.5815,-0.00015367,-2.734e-05,0.0,0 STARLINK-3807,1 52353U 22045Y   22265.83201664 -.00002734  00000-0 -15367-3 0  9991,2 52353  53.2182 112.7991 0000960  53.5265 306.5815 15.08862587 24983,6917.811,95.436,540.34,539.012,0.0
52353.0,STARLINK-3807,PAYLOAD,2022-09-22 21:33:29,15.08838616,0.0001411,53.2202,112.5084,46.3246,313.7863,3.6969e-05,3e-06,0.0,0 STARLINK-3807,1 52353U 22045Y   22265.89826286  .00000300  00000-0  36969-4 0  9997,2 52353  53.2202 112.5084 0001411  46.3246 313.7863 15.08838616 24998,6917.885,95.438,540.726,538.774,0.0
52353.0,STARLINK-3807,PAYLOAD,2022-09-23 19:48:54,15.08828372,0.0001296999999999,53.2204,108.3367,63.1119,297.0005,-9.1383e-05,-1.741e-05,0.0,0 STARLINK-3807,1 52353U 22045Y   22266.82563087 -.00001741  00000-0 -91383-4 0  9991,2 52353  53.2204 108.3367 0001297  63.1119 297.0005 15.08828372 25132,6917.916,95.438,540.678,538.884,0.0
52353.0,STARLINK-3807,PAYLOAD,2022-09-24 19:39:41,15.08835628,0.0002031,53.2198,103.8866,43.8119,316.3034,2.96e-06,-2.41e-06,0.0,0 STARLINK-3807,1 52353U 22045Y   22267.81922745 -.00000241  00000-0  29600-5 0  9998,2 52353  53.2198 103.8866 0002031  43.8119 316.3034 15.08835628 25285,6917.894,95.438,541.164,538.354,0.0
52353.0,STARLINK-3807,PAYLOAD,2022-09-24 21:15:04,15.08837328,0.0001885999999999,53.2199,103.5868,44.8293,315.2852,1.1728e-06,-2.69e-06,0.0,0 STARLINK-3807,1 52353U 22045Y   22267.88546713 -.00000269  00000-0  11728-5 0  9994,2 52353  53.2199 103.5868 0001886  44.8293 315.2852 15.08837328 25292,6917.889,95.438,541.058,538.4490000000002,0.0
52353.0,STARLINK-3807,PAYLOAD,2022-09-25 17:55:04,15.08843851,0.0001585999999999,53.2196,99.7212,46.6056,313.5068,-1.6285e-05,-5.47e-06,0.0,0 STARLINK-3807,1 52353U 22045Y   22268.74658007 -.00000547  00000-0 -16285-4 0  9992,2 52353  53.2196  99.7212 0001586  46.6056 313.5068 15.08843851 25425,6917.869000000002,95.437,540.831,538.636,0.0
52353.0,STARLINK-3807,PAYLOAD,2022-09-25 19:30:28,15.08837405,0.0001906,53.2195,99.4251,39.279,320.834,-5.9399e-05,-1.233e-05,0.0,0 STARLINK-3807,1 52353U 22045Y   22268.81282712 -.00001233  00000-0 -59399-4 0  9992,2 52353  53.2195  99.4251 0001906  39.2790 320.8340 15.08837405 25436,6917.888000000001,95.438,541.072,538.435,0.0
52353.0,STARLINK-3807,PAYLOAD,2022-09-27 04:53:33,15.08844858,0.0001839,53.2191,93.1822,40.3778,319.735,-7.4182e-05,-1.469e-05,0.0,0 STARLINK-3807,1 52353U 22045Y   22270.20386528 -.00001469  00000-0 -74182-4 0  9996,2 52353  53.2191  93.1822 0001839  40.3778 319.7350 15.08844858 25642,6917.866,95.437,541.003,538.4580000000002,0.0
